*******************************************************************************
Revised: Jul 26, 2016             Moon / (Earth)                            301

PHYSICAL PROPERTIES:
Radius (IAU), km      = 1737.4          Mass, 10^20 kg        =  734.9
Radius (gravity), km  = 1738.0          Geometric albedo      =    0.12
Density, gm cm^-3     =    3.3437       GM, km^3/s^2          = 4902.80007
V(1,0)                =   +0.21         Surface gravity       =    1.62 m s^-2
Earth/Moon mass ratio = 81.3005691      Farside crust. thick. = ~80 - 90 km
Nearside crust. thick.= 58+-8 km        Heat flow, Apollo 17  = 2.2+-.5 mW/m^2
Heat flow, Apollo 15  = 3.1+-.6 mW/m^2  k2                    = 0.024059
Mean crustal density  = 2.97+-.07g/cm^3 Magnetometer moment   = 435+-15
Induced magnetic mom. = 4.23x10^22Gcm^3

DYNAMICAL CHARACTERISTICS:
Mean angular diameter = 31'05.2"        Orbit period          = 27.321582 d
Obliquity to orbit    = 6.67 deg        Eccentricity          = 0.05490
Semi-major axis, a    = 384400 km       Inclination           = 5.145 deg
Mean motion, rad/s    = 2.6616995x10^-6 Nodal period          = 6798.38 d
Apsidal period        = 3231.50 d       Mom. of inertia C/MR^2= 0.393142
beta (C-A/B), x10^-4  = 6.310213        gamma (B-A/C), x10^-4 = 2.277317
*******************************************************************************


*******************************************************************************
Ephemeris / WWW_USER Wed May 17 21:59:16 2017 Pasadena, USA      / Horizons
*******************************************************************************
Target body name: Moon (301)                      {source: DE431mx}
Center body name: Earth (399)                     {source: DE431mx}
Center-site name: (user defined site below)
*******************************************************************************
Start time      : A.D. 1970-Jan-01 00:00:00.0000 UT
Stop  time      : A.D. 1970-Jan-31 00:00:00.0000 UT
Step-size       : 10 minutes
*******************************************************************************
Target pole/equ : IAU_MOON                        {East-longitude +}
Target radii    : 1737.4 x 1737.4 x 1737.4 km     {Equator, meridian, pole}
Center geodetic : 237.584400,37.7816000,12.000000 {E-lon(deg),Lat(deg),Alt(km)}
Center cylindric: 237.584400,5056.80146,3893.6651 {E-lon(deg),Dxy(km),Dz(km)}
Center pole/equ : High-precision EOP model        {East-longitude +}
Center radii    : 6378.1 x 6378.1 x 6356.8 km     {Equator, meridian, pole}
Target primary  : Earth
Vis. interferer : MOON (R_eq= 1737.400) km        {source: DE431mx}
Rel. light bend : Sun, EARTH                      {source: DE431mx}
Rel. lght bnd GM: 1.3271E+11, 3.9860E+05 km^3/s^2
Atmos refraction: NO (AIRLESS)
RA format       : DEG
Time format     : JD
RTS-only print  : NO
EOP file        : eop.170517.p170808
EOP coverage    : DATA-BASED 1962-JAN-20 TO 2017-MAY-17. PREDICTS-> 2017-AUG-07
Units conversion: 1 au= 149597870.700 km, c= 299792.458 km/s, 1 day= 86400.0 s
Table cut-offs 1: Elevation (-90.0deg=NO ),Airmass (>38.000=NO), Daylight (NO )
Table cut-offs 2: Solar Elongation (  0.0,180.0=NO ),Local Hour Angle( 0.0=NO )
Table format    : Comma Separated Values (spreadsheet)
************************************************************************************************************************************************************************************
Date_________JDUT, , ,R.A._(ICRF/J2000.0), DEC_(ICRF/J2000.0),  APmag, S-brt,   Illu%, Ang-diam, Obsrv-lon,Obsrv-lat, Solar-lon,Solar-lat,   NP.ang,  NP.dist, N.Pole-RA, N.Pole-DC,
************************************************************************************************************************************************************************************
$$SOE
2440592.250000000,*,m,254.00911,-28.65323,  -6.98,  6.32,   6.744, 1983.649, 354.95767,  7.51067, 204.52113, -1.31420,   6.5074,   983.32, 270.97863,  68.03217,
2440592.256944444,*,t,254.08555,-28.66438,  -6.98,  6.32,   6.718, 1983.819, 354.93465,  7.51435, 204.43650, -1.31408,   6.4799,   983.39, 270.97872,  68.03214,
2440592.263888889,*,m,254.16206,-28.67474,  -6.97,  6.32,   6.692, 1983.945, 354.91160,  7.51729, 204.35187, -1.31395,   6.4522,   983.45, 270.97881,  68.03211,
2440592.270833333,*,m,254.23870,-28.68434,  -6.97,  6.32,   6.666, 1984.028, 354.88858,  7.51948, 204.26724, -1.31382,   6.4245,   983.48, 270.97889,  68.03208,
2440592.277777778,*,m,254.31555,-28.69316,  -6.96,  6.32,   6.640, 1984.068, 354.86565,  7.52092, 204.18261, -1.31369,   6.3967,   983.50, 270.97898,  68.03204,
2440592.284722222,*,m,254.39268,-28.70122,  -6.96,  6.32,   6.614, 1984.065, 354.84287,  7.52160, 204.09798, -1.31357,   6.3688,   983.50, 270.97907,  68.03201,
2440592.291666667,*,m,254.47015,-28.70850,  -6.95,  6.32,   6.588, 1984.020, 354.82031,  7.52152, 204.01335, -1.31344,   6.3408,   983.47, 270.97915,  68.03198,
2440592.298611111,*,m,254.54803,-28.71503,  -6.95,  6.32,   6.562, 1983.932, 354.79802,  7.52068, 203.92872, -1.31331,   6.3125,   983.43, 270.97924,  68.03195,
2440592.305555556,*,m,254.62640,-28.72081,  -6.94,  6.32,   6.535, 1983.803, 354.77608,  7.51908, 203.84409, -1.31319,   6.2841,   983.37, 270.97933,  68.03191,
2440592.312500000,*,m,254.70531,-28.72585,  -6.94,  6.32,   6.508, 1983.632, 354.75453,  7.51673, 203.75946, -1.31306,   6.2554,   983.29, 270.97941,  68.03188,
2440592.319444444,*,m,254.78483,-28.73014,  -6.93,  6.32,   6.482, 1983.421, 354.73344,  7.51363, 203.67483, -1.31293,   6.2265,   983.20, 270.97950,  68.03185,
2440592.326388889,*,m,254.86503,-28.73372,  -6.93,  6.32,   6.454, 1983.171, 354.71286,  7.50977, 203.59020, -1.31280,   6.1974,   983.08, 270.97959,  68.03182,
2440592.333333333,*,m,254.94597,-28.73658,  -6.92,  6.32,   6.427, 1982.881, 354.69286,  7.50518, 203.50557, -1.31268,   6.1679,   982.95, 270.97968,  68.03179,
2440592.340277778,*,m,255.02771,-28.73875,  -6.91,  6.32,   6.400, 1982.553, 354.67349,  7.49986, 203.42094, -1.31255,   6.1381,   982.80, 270.97976,  68.03175,
2440592.347222222,*,m,255.11031,-28.74023,  -6.91,  6.33,   6.372, 1982.188, 354.65481,  7.49382, 203.33630, -1.31242,   6.1080,   982.63, 270.97985,  68.03172,
2440592.354166667,*,m,255.19383,-28.74104,  -6.90,  6.33,   6.343, 1981.787, 354.63686,  7.48706, 203.25167, -1.31230,   6.0776,   982.45, 270.97994,  68.03169,
2440592.361111111,*,m,255.27832,-28.74119,  -6.90,  6.33,   6.315, 1981.351, 354.61971,  7.47961, 203.16704, -1.31217,   6.0467,   982.25, 270.98003,  68.03166,
2440592.368055556,*,m,255.36384,-28.74071,  -6.89,  6.33,   6.286, 1980.881, 354.60340,  7.47148, 203.08241, -1.31204,   6.0155,   982.03, 270.98012,  68.03163,
2440592.375000000,*,m,255.45045,-28.73962,  -6.88,  6.33,   6.257, 1980.379, 354.58799,  7.46267, 202.99777, -1.31192,   5.9839,   981.80, 270.98020,  68.03159,
2440592.381944444,*,m,255.53819,-28.73793,  -6.88,  6.33,   6.227, 1979.845, 354.57351,  7.45322, 202.91314, -1.31179,   5.9518,   981.56, 270.98029,  68.03156,
2440592.388888889,*,m,255.62711,-28.73566,  -6.87,  6.33,   6.197, 1979.280, 354.56003,  7.44312, 202.82851, -1.31166,   5.9193,   981.30, 270.98038,  68.03153,
2440592.395833333,*,m,255.71726,-28.73283,  -6.87,  6.33,   6.167, 1978.687, 354.54757,  7.43242, 202.74388, -1.31153,   5.8863,   981.03, 270.98047,  68.03150,
2440592.402777778,*,m,255.80868,-28.72947,  -6.86,  6.33,   6.136, 1978.067, 354.53619,  7.42111, 202.65924, -1.31141,   5.8528,   980.75, 270.98056,  68.03147,
2440592.409722222,*,m,255.90141,-28.72560,  -6.85,  6.33,   6.105, 1977.421, 354.52591,  7.40923, 202.57461, -1.31128,   5.8188,   980.46, 270.98065,  68.03143,
2440592.416666667,*,m,255.99550,-28.72125,  -6.85,  6.33,   6.073, 1976.750, 354.51679,  7.39680, 202.48998, -1.31115,   5.7843,   980.15, 270.98074,  68.03140,
2440592.423611111,*,m,256.09098,-28.71643,  -6.84,  6.33,   6.041, 1976.057, 354.50886,  7.38384, 202.40534, -1.31103,   5.7493,   979.84, 270.98082,  68.03137,
2440592.430555556,*,m,256.18787,-28.71117,  -6.83,  6.33,   6.009, 1975.342, 354.50214,  7.37037, 202.32071, -1.31090,   5.7137,   979.51, 270.98091,  68.03134,
2440592.437500000,*,m,256.28623,-28.70550,  -6.82,  6.33,   5.976, 1974.607, 354.49667,  7.35642, 202.23607, -1.31077,   5.6776,   979.18, 270.98100,  68.03131,
2440592.444444444,*,s,256.38606,-28.69944,  -6.82,  6.33,   5.942, 1973.855, 354.49248,  7.34201, 202.15144, -1.31065,   5.6409,   978.84, 270.98109,  68.03128,
2440592.451388889,*, ,256.48740,-28.69302,  -6.81,  6.33,   5.908, 1973.086, 354.48960,  7.32718, 202.06681, -1.31052,   5.6037,   978.49, 270.98118,  68.03124,
2440592.458333333,*, ,256.59028,-28.68626,  -6.80,  6.33,   5.874, 1972.302, 354.48805,  7.31194, 201.98217, -1.31039,   5.5659,   978.13, 270.98127,  68.03121,
2440592.465277778,*, ,256.69470,-28.67920,  -6.79,  6.33,   5.839, 1971.506, 354.48784,  7.29633, 201.89754, -1.31027,   5.5275,   977.77, 270.98136,  68.03118,
2440592.472222222,*, ,256.80070,-28.67186,  -6.79,  6.33,   5.803, 1970.698, 354.48901,  7.28037, 201.81290, -1.31014,   5.4885,   977.41, 270.98145,  68.03115,
2440592.479166667,*, ,256.90827,-28.66427,  -6.78,  6.34,   5.768, 1969.881, 354.49156,  7.26410, 201.72827, -1.31001,   5.4489,   977.04, 270.98154,  68.03112,
2440592.486111111,*, ,257.01745,-28.65645,  -6.77,  6.34,   5.731, 1969.056, 354.49551,  7.24754, 201.64363, -1.30989,   5.4087,   976.66, 270.98163,  68.03109,
2440592.493055556,*, ,257.12822,-28.64843,  -6.76,  6.34,   5.695, 1968.224, 354.50087,  7.23072, 201.55900, -1.30976,   5.3679,   976.29, 270.98172,  68.03105,
2440592.500000000,*, ,257.24061,-28.64024,  -6.75,  6.34,   5.657, 1967.389, 354.50765,  7.21367, 201.47436, -1.30963,   5.3265,   975.91, 270.98181,  68.03102,
2440592.506944444,*, ,257.35462,-28.63192,  -6.74,  6.34,   5.620, 1966.551, 354.51586,  7.19643, 201.38973, -1.30951,   5.2845,   975.53, 270.98190,  68.03099,
